{
  "norad_id": 68760,
  "name": "DAQI-2",
  "history": [
    {
      "epoch": "2026-04-17T23:19:45.750720Z",
      "apogee_km": 689.1548130474575,
      "perigee_km": 682.0177683090224,
      "latitude_deg": 6.423867158850962e-05,
      "longitude_deg": -13.65978276528435,
      "height_km": 690.2192887096265,
      "semi_major_axis_km": 7063.72329067824,
      "eccentricity": 0.00050519,
      "inclination_deg": 98.2892,
      "raan_deg": 182.3786,
      "arg_perigee_deg": 242.6063,
      "mean_anomaly_deg": 117.4625,
      "mean_motion_rev_day": 14.62353082
    }
  ]
}