DAQI-2
1 68760U 26084A   26107.97205730  .00000021  00000+0  13810-4 0  9995
2 68760  98.2892 182.3786 0005051 242.6063 117.4625 14.62353082   129
